NORAD_CAT_ID,OBJECT_NAME,OBJECT_TYPE,EPOCH,MEAN_MOTION,ECCENTRICITY,INCLINATION,RA_OF_ASC_NODE,ARG_OF_PERICENTER,MEAN_ANOMALY,BSTAR,MEAN_MOTION_DOT,MEAN_MOTION_DDOT,TLE_LINE0,TLE_LINE1,TLE_LINE2,SEMIMAJOR_AXIS,PERIOD,APOGEE,PERIGEE,DECAYED
52839.0,STARLINK-4048,PAYLOAD,2024-02-23 12:55:05,15.08846107,0.0001732,53.2182,139.2379,116.4252,243.6918,4.2037e-05,3.81e-06,0.0,0 STARLINK-4048,1 52839U 22062K   24054.53825832  .00000381  00000-0  42037-4 0  9992,2 52839  53.2182 139.2379 0001732 116.4252 243.6918 15.08846107 93788,6917.862,95.437,540.925,538.529,0.0
52839.0,STARLINK-4048,PAYLOAD,2024-02-23 14:30:28,15.08849754,0.0001652,53.2181,138.9393,110.9005,249.2164,9.3081e-05,1.194e-05,0.0,0 STARLINK-4048,1 52839U 22062K   24054.60449554  .00001194  00000-0  93081-4 0  9991,2 52839  53.2181 138.9393 0001652 110.9005 249.2164 15.08849754 93309,6917.851,95.437,540.858,538.573,0.0
52839.0,STARLINK-4048,PAYLOAD,2024-02-23 22:27:24,15.08835424,0.0001811,53.2181,137.4523,102.8521,257.2673,5.2067e-05,5.41e-06,0.0,0 STARLINK-4048,1 52839U 22062K   24054.93570293  .00000541  00000-0  52067-4 0  9996,2 52839  53.2181 137.4523 0001811 102.8521 257.2673 15.08835424 93356,6917.894,95.438,541.012,538.507,0.0
52839.0,STARLINK-4048,PAYLOAD,2024-02-24 12:45:53,15.08837699,0.0001722,53.2177,134.7763,97.8501,262.2686,6.7723e-05,7.9e-06,0.0,0 STARLINK-4048,1 52839U 22062K   24055.53186422  .00000790  00000-0  67723-4 0  9991,2 52839  53.2177 134.7763 0001722  97.8501 262.2686 15.08837699 93445,6917.887,95.438,540.944,538.561,0.0
52839.0,STARLINK-4048,PAYLOAD,2024-02-25 12:36:39,15.08850581,0.000154,53.2169,130.3143,89.9512,270.1657,9.984e-05,1.302e-05,0.0,0 STARLINK-4048,1 52839U 22062K   24056.52545944  .00001302  00000-0  99840-4 0  9994,2 52839  53.2169 130.3143 0001540  89.9512 270.1657 15.08850581 94084,6917.848,95.437,540.778,538.648,0.0
52839.0,STARLINK-4048,PAYLOAD,2024-02-25 14:12:02,15.08852532,0.0001483,53.2164,130.0157,85.6703,274.4459,0.00017954,2.572e-05,0.0,0 STARLINK-4048,1 52839U 22062K   24056.59169788  .00002572  00000-0  17954-3 0  9994,2 52839  53.2164 130.0157 0001483  85.6703 274.4459 15.08852532 93604,6917.842,95.437,540.733,538.681,0.0
52839.0,STARLINK-4048,PAYLOAD,2024-02-25 22:08:58,15.08848311,0.0001503,53.2162,128.5305,85.1962,274.9202,0.00013362,1.84e-05,0.0,0 STARLINK-4048,1 52839U 22062K   24056.92290012  .00001840  00000-0  13362-3 0  9992,2 52839  53.2162 128.5305 0001503  85.1962 274.9202 15.08848311 93650,6917.855,95.437,540.76,538.68,0.0
52839.0,STARLINK-4048,PAYLOAD,2024-02-26 04:30:31,15.08842752,0.0001709,53.2164,127.34,90.091,270.0278,0.00017433,2.488e-05,0.0,0 STARLINK-4048,1 52839U 22062K   24057.18786479  .00002488  00000-0  17433-3 0  9990,2 52839  53.2164 127.3400 0001709  90.0910 270.0278 15.08842752 94183,6917.872,95.437,540.919,538.555,0.0
52839.0,STARLINK-4048,PAYLOAD,2024-02-26 10:52:03,15.08847419,0.0001708,53.2161,126.1519,86.2647,273.854,0.00018139,2.601e-05,0.0,0 STARLINK-4048,1 52839U 22062K   24057.45282049  .00002601  00000-0  18139-3 0  9995,2 52839  53.2161 126.1519 0001708  86.2647 273.8540 15.08847419 93739,6917.858,95.437,540.904,538.541,0.0
52839.0,STARLINK-4048,PAYLOAD,2024-02-27 10:42:52,15.08824671,9.69e-05,53.2173,121.6893,79.0115,281.0986,-0.00018452,-3.222e-05,0.0,0 STARLINK-4048,1 52839U 22062K   24058.44644211 -.00003222  00000-0 -18452-3 0  9998,2 52839  53.2173 121.6893 0000969  79.0115 281.0986 15.08824671 94376,6917.927,95.439,540.463,539.122,0.0
52839.0,STARLINK-4048,PAYLOAD,2024-02-28 10:33:39,15.08828362,0.0001208,53.2151,117.2304,83.1859,276.927,5.2568e-05,5.49e-06,0.0,0 STARLINK-4048,1 52839U 22062K   24059.44004456  .00000549  00000-0  52568-4 0  9994,2 52839  53.2151 117.2304 0001208  83.1859 276.9270 15.08828362 94525,6917.916,95.438,540.617,538.945,0.0
52839.0,STARLINK-4048,PAYLOAD,2024-02-29 04:02:53,15.08847992,9.66e-05,53.215,113.9585,78.2403,281.8697,0.00015384,2.162e-05,0.0,0 STARLINK-4048,1 52839U 22062K   24060.16867824  .00002162  00000-0  15384-3 0  9998,2 52839  53.2150 113.9585 0000966  78.2403 281.8697 15.08847992 94638,6917.856,95.437,540.389,539.053,0.0
52839.0,STARLINK-4048,PAYLOAD,2024-02-29 10:24:26,15.08857064,0.0001882,53.2163,112.769,44.5291,315.5853,0.00073894,0.00011497,0.0,0 STARLINK-4048,1 52839U 22062K   24060.43364112  .00011497  00000-0  73894-3 0  9991,2 52839  53.2163 112.7690 0001882  44.5291 315.5853 15.08857064 94185,6917.828,95.436,540.995,538.391,0.0
52839.0,STARLINK-4048,PAYLOAD,2024-02-29 19:56:45,15.08849832,0.0001195,53.2164,110.9845,81.5532,278.5595,0.0003901,5.928e-05,0.0,0 STARLINK-4048,1 52839U 22062K   24060.83108048  .00005928  00000-0  39010-3 0  9993,2 52839  53.2164 110.9845 0001195  81.5532 278.5595 15.08849832 94246,6917.85,95.437,540.542,538.889,0.0
52839.0,STARLINK-4048,PAYLOAD,2024-03-01 13:25:59,15.08857519,0.0001456,53.2171,107.7148,91.8646,268.2513,0.00024309,3.585e-05,0.0,0 STARLINK-4048,1 52839U 22062K   24061.55971238  .00003585  00000-0  24309-3 0  9994,2 52839  53.2171 107.7148 0001456  91.8646 268.2513 15.08857519 94353,6917.827,95.436,540.699,538.685,0.0
52839.0,STARLINK-4048,PAYLOAD,2024-03-02 10:05:59,15.08854587,0.0001366,53.2158,103.8458,78.0748,282.0398,0.00013679,1.891e-05,0.0,0 STARLINK-4048,1 52839U 22062K   24062.42082758  .00001891  00000-0  13679-3 0  9997,2 52839  53.2158 103.8458 0001366  78.0748 282.0398 15.08854587 94974,6917.836,95.437,540.646,538.756,0.0
52839.0,STARLINK-4048,PAYLOAD,2024-03-03 01:59:51,15.08846458,0.0001797,53.2165,100.8772,62.4114,297.706,7.8263e-05,9.58e-06,0.0,0 STARLINK-4048,1 52839U 22062K   24063.08323026  .00000958  00000-0  78263-4 0  9990,2 52839  53.2165 100.8772 0001797  62.4114 297.7060 15.08846458 95079,6917.861,95.437,540.969,538.483,0.0
52839.0,STARLINK-4048,PAYLOAD,2024-03-03 09:56:46,15.08842024,0.0001511,53.2163,99.386,73.904,286.2119,-1.1338e-05,-4.68e-06,0.0,0 STARLINK-4048,1 52839U 22062K   24063.41443180 -.00000468  00000-0 -11338-4 0  9999,2 52839  53.2163  99.3860 0001511  73.9040 286.2119 15.08842024 94630,6917.874,95.437,540.784,538.694,0.0
52839.0,STARLINK-4048,PAYLOAD,2024-03-04 01:50:38,15.08840315,0.0001844,53.2167,96.4153,59.8645,300.2529,5.3696e-05,5.67e-06,0.0,0 STARLINK-4048,1 52839U 22062K   24064.07683497  .00000567  00000-0  53696-4 0  9990,2 52839  53.2167  96.4153 0001844  59.8645 300.2529 15.08840315 95229,6917.879,95.438,541.02,538.469,0.0
52839.0,STARLINK-4048,PAYLOAD,2024-03-04 09:47:33,15.0884964,0.0001377,53.2157,94.9281,94.1514,265.9635,0.00010048,1.312e-05,0.0,0 STARLINK-4048,1 52839U 22062K   24064.40802774  .00001312  00000-0  10048-3 0  9990,2 52839  53.2157  94.9281 0001377  94.1514 265.9635 15.08849640 95271,6917.851,95.437,540.669,538.763,0.0
52839.0,STARLINK-4048,PAYLOAD,2024-03-04 19:19:52,15.08838223,0.0001428,53.2167,93.1418,88.5555,271.5601,7.5416e-05,9.12e-06,0.0,0 STARLINK-4048,1 52839U 22062K   24064.80547380  .00000912  00000-0  75416-4 0  9999,2 52839  53.2167  93.1418 0001428  88.5555 271.5601 15.08838223 95332,6917.886,95.438,540.739,538.763,0.0
52839.0,STARLINK-4048,PAYLOAD,2024-03-05 08:02:58,15.08829281,0.0001451,53.2154,90.7632,95.4019,264.7138,-9.2086e-06,-4.34e-06,0.0,0 STARLINK-4048,1 52839U 22062K   24065.33540145 -.00000434  00000-0 -92086-5 0  9994,2 52839  53.2154  90.7632 0001451  95.4019 264.7138 15.08829281 94924,6917.913,95.438,540.782,538.774,0.0
52839.0,STARLINK-4048,PAYLOAD,2024-03-05 19:10:40,15.08837568,0.000155,53.2168,88.6806,97.7167,262.4001,0.00013404,1.846e-05,0.0,0 STARLINK-4048,1 52839U 22062K   24065.79907982  .00001846  00000-0  13404-3 0  9991,2 52839  53.2168  88.6806 0001550  97.7167 262.4001 15.08837568 95480,6917.888,95.438,540.825,538.681,0.0
52839.0,STARLINK-4048,PAYLOAD,2024-03-06 11:04:30,15.08856441,0.0001646,53.2165,85.7063,101.8675,258.2501,0.0002632,3.905e-05,0.0,0 STARLINK-4048,1 52839U 22062K   24066.46146929  .00003905  00000-0  26320-3 0  9991,2 52839  53.2165  85.7063 0001646 101.8675 258.2501 15.08856441 95587,6917.83,95.437,540.834,538.556,0.0
52839.0,STARLINK-4048,PAYLOAD,2024-03-07 10:55:18,15.08842508,0.0001348,53.2162,81.2456,92.3256,267.7891,0.00015015,2.103e-05,0.0,0 STARLINK-4048,1 52839U 22062K   24067.45507748  .00002103  00000-0  15015-3 0  9999,2 52839  53.2162  81.2456 0001348  92.3256 267.7891 15.08842508 95248,6917.873,95.437,540.67,538.805,0.0
52839.0,STARLINK-4048,PAYLOAD,2024-03-08 02:49:09,15.0885411,0.0001487,53.2173,78.2705,93.9689,266.1473,0.00025234,3.732e-05,0.0,0 STARLINK-4048,1 52839U 22062K   24068.11746980  .00003732  00000-0  25234-3 0  9999,2 52839  53.2173  78.2705 0001487  93.9689 266.1473 15.08854110 95830,6917.837,95.437,540.731,538.674,0.0
52839.0,STARLINK-4048,PAYLOAD,2024-03-08 07:35:18,15.0886444,0.0001307,53.2159,77.3805,88.2461,271.8681,0.00078804,0.00012284,0.0,0 STARLINK-4048,1 52839U 22062K   24068.31618900  .00012284  00000-0  78804-3 0  9994,2 52839  53.2159  77.3805 0001307  88.2461 271.8681 15.08864440 95371,6917.806,95.436,540.575,538.767,0.0
52839.0,STARLINK-4048,PAYLOAD,2024-03-08 17:07:37,15.08854549,0.0001247,53.2163,75.5946,75.8914,284.2216,0.00048379,7.423e-05,0.0,0 STARLINK-4048,1 52839U 22062K   24068.71362763  .00007423  00000-0  48379-3 0  9994,2 52839  53.2163  75.5946 0001247  75.8914 284.2216 15.08854549 95438,6917.836,95.437,540.564,538.838,0.0
52839.0,STARLINK-4048,PAYLOAD,2024-03-09 04:15:19,15.08831638,0.0001358,53.2154,73.5129,79.0955,281.019,-0.0002776,-4.702e-05,0.0,0 STARLINK-4048,1 52839U 22062K   24069.17731401 -.00004702  00000-0 -27760-3 0  9994,2 52839  53.2154  73.5129 0001358  79.0955 281.0190 15.08831638 95994,6917.906,95.438,540.71,538.831,0.0
52839.0,STARLINK-4048,PAYLOAD,2024-03-09 07:26:06,15.0884028,0.0001359,53.2156,72.9198,83.0422,277.0724,7.7578e-05,9.47e-06,0.0,0 STARLINK-4048,1 52839U 22062K   24069.30979350  .00000947  00000-0  77578-4 0  9994,2 52839  53.2156  72.9198 0001359  83.0422 277.0724 15.08840280 95520,6917.88,95.438,540.685,538.804,0.0
